GLOBALSTAR M024 [-]     
1 25883U 99043A   23298.47580105  .00000019  00000+0  29812-2 0  9998
2 25883  52.0018 296.0185 0001154 183.5058 347.0850 11.10155967 48146
GLOBALSTAR M027 [-]     
1 25884U 99043B   23298.40157694 -.00000057  00000+0  25291-3 0  9996
2 25884  52.0249 357.1526 0021652 101.6167 258.7058 11.04364915 74862
GLOBALSTAR M054 [-]     
1 25885U 99043C   23298.19422027 -.00000105  00000+0 -85695-3 0  9997
2 25885  52.0131 225.7634 0003884 210.9834 292.5448 11.39203766 50558
GLOBALSTAR M053 [-]     
1 25886U 99043D   23298.88644071 -.00000033  00000+0  10397-2 0  9994
2 25886  51.9946 137.8998 0004069 129.7363 333.9104 11.27651951 51726
GLOBALSTAR M058 [-]     
1 25907U 99049A   23298.33201807 -.00000070  00000+0  18914-3 0  9995
2 25907  51.9935 273.5709 0002059 181.6087 178.4742 11.93167664469812
GLOBALSTAR M050 [-]     
1 25908U 99049B   23298.49192676  .00000014  00000+0  11562-2 0  9994
2 25908  52.0000 325.6972 0008773 275.0573 260.3720 12.07422536 75623
GLOBALSTAR M055 [-]     
1 25910U 99049D   23298.27411487 -.00000067  00000+0  22972-3 0  9994
2 25910  52.0014 279.6209 0007020 327.3899  32.6518 12.29389547 94374
